<?xml version="1.0" encoding="UTF-8"?>
<ndm xmlns:xsi="http://www.w3.org/2001/XMLSchema-instance" xsi:noNamespaceSchemaLocation="https://sanaregistry.org/r/ndmxml_unqualified/ndmxml-2.0.0-master-2.0.xsd">
<omm id="CCSDS_OMM_VERS" version="2.0">
<header><CREATION_DATE/><ORIGINATOR/></header><body><segment><metadata><OBJECT_NAME>KUIPER-00027</OBJECT_NAME><OBJECT_ID>2025-088S</OBJECT_ID><CENTER_NAME>EARTH</CENTER_NAME><REF_FRAME>TEME</REF_FRAME><TIME_SYSTEM>UTC</TIME_SYSTEM><MEAN_ELEMENT_THEORY>SGP4</MEAN_ELEMENT_THEORY></metadata><data><meanElements><EPOCH>2025-11-04T04:17:45.023712</EPOCH><MEAN_MOTION>14.79602215</MEAN_MOTION><ECCENTRICITY>.00053051</ECCENTRICITY><INCLINATION>51.9017</INCLINATION><RA_OF_ASC_NODE>290.4676</RA_OF_ASC_NODE><ARG_OF_PERICENTER>100.4865</ARG_OF_PERICENTER><MEAN_ANOMALY>259.6695</MEAN_ANOMALY></meanElements><tleParameters><EPHEMERIS_TYPE>0</EPHEMERIS_TYPE><CLASSIFICATION_TYPE>U</CLASSIFICATION_TYPE><NORAD_CAT_ID>63740</NORAD_CAT_ID><ELEMENT_SET_NO>999</ELEMENT_SET_NO><REV_AT_EPOCH>2903</REV_AT_EPOCH><BSTAR>.39317133E-3</BSTAR><MEAN_MOTION_DOT>.2754E-4</MEAN_MOTION_DOT><MEAN_MOTION_DDOT>0</MEAN_MOTION_DDOT></tleParameters></data></segment></body></omm>
<omm id="CCSDS_OMM_VERS" version="2.0">
<header><CREATION_DATE/><ORIGINATOR/></header><body><segment><metadata><OBJECT_NAME>KUIPER-00028</OBJECT_NAME><OBJECT_ID>2025-088T</OBJECT_ID><CENTER_NAME>EARTH</CENTER_NAME><REF_FRAME>TEME</REF_FRAME><TIME_SYSTEM>UTC</TIME_SYSTEM><MEAN_ELEMENT_THEORY>SGP4</MEAN_ELEMENT_THEORY></metadata><data><meanElements><EPOCH>2025-11-04T06:17:54.431520</EPOCH><MEAN_MOTION>14.79363876</MEAN_MOTION><ECCENTRICITY>.00046101</ECCENTRICITY><INCLINATION>51.9013</INCLINATION><RA_OF_ASC_NODE>288.0646</RA_OF_ASC_NODE><ARG_OF_PERICENTER>118.9971</ARG_OF_PERICENTER><MEAN_ANOMALY>241.1454</MEAN_ANOMALY></meanElements><tleParameters><EPHEMERIS_TYPE>0</EPHEMERIS_TYPE><CLASSIFICATION_TYPE>U</CLASSIFICATION_TYPE><NORAD_CAT_ID>63741</NORAD_CAT_ID><ELEMENT_SET_NO>999</ELEMENT_SET_NO><REV_AT_EPOCH>2948</REV_AT_EPOCH><BSTAR>.39762965E-3</BSTAR><MEAN_MOTION_DOT>.2771E-4</MEAN_MOTION_DOT><MEAN_MOTION_DDOT>0</MEAN_MOTION_DDOT></tleParameters></data></segment></body></omm>
<omm id="CCSDS_OMM_VERS" version="2.0">
<header><CREATION_DATE/><ORIGINATOR/></header><body><segment><metadata><OBJECT_NAME>KUIPER-00029</OBJECT_NAME><OBJECT_ID>2025-088U</OBJECT_ID><CENTER_NAME>EARTH</CENTER_NAME><REF_FRAME>TEME</REF_FRAME><TIME_SYSTEM>UTC</TIME_SYSTEM><MEAN_ELEMENT_THEORY>SGP4</MEAN_ELEMENT_THEORY></metadata><data><meanElements><EPOCH>2025-11-04T05:39:02.941344</EPOCH><MEAN_MOTION>14.80006096</MEAN_MOTION><ECCENTRICITY>.00094984</ECCENTRICITY><INCLINATION>51.9023</INCLINATION><RA_OF_ASC_NODE>286.1009</RA_OF_ASC_NODE><ARG_OF_PERICENTER>72.5338</ARG_OF_PERICENTER><MEAN_ANOMALY>287.6662</MEAN_ANOMALY></meanElements><tleParameters><EPHEMERIS_TYPE>0</EPHEMERIS_TYPE><CLASSIFICATION_TYPE>U</CLASSIFICATION_TYPE><NORAD_CAT_ID>63742</NORAD_CAT_ID><ELEMENT_SET_NO>999</ELEMENT_SET_NO><REV_AT_EPOCH>2903</REV_AT_EPOCH><BSTAR>.45896701E-3</BSTAR><MEAN_MOTION_DOT>.3285E-4</MEAN_MOTION_DOT><MEAN_MOTION_DDOT>0</MEAN_MOTION_DDOT></tleParameters></data></segment></body></omm>
<omm id="CCSDS_OMM_VERS" version="2.0">
<header><CREATION_DATE/><ORIGINATOR/></header><body><segment><metadata><OBJECT_NAME>KUIPER-00030</OBJECT_NAME><OBJECT_ID>2025-088V</OBJECT_ID><CENTER_NAME>EARTH</CENTER_NAME><REF_FRAME>TEME</REF_FRAME><TIME_SYSTEM>UTC</TIME_SYSTEM><MEAN_ELEMENT_THEORY>SGP4</MEAN_ELEMENT_THEORY></metadata><data><meanElements><EPOCH>2025-11-04T04:10:13.791936</EPOCH><MEAN_MOTION>14.79926031</MEAN_MOTION><ECCENTRICITY>.00145199</ECCENTRICITY><INCLINATION>51.9015</INCLINATION><RA_OF_ASC_NODE>305.5687</RA_OF_ASC_NODE><ARG_OF_PERICENTER>17.6842</ARG_OF_PERICENTER><MEAN_ANOMALY>342.4623</MEAN_ANOMALY></meanElements><tleParameters><EPHEMERIS_TYPE>0</EPHEMERIS_TYPE><CLASSIFICATION_TYPE>U</CLASSIFICATION_TYPE><NORAD_CAT_ID>63743</NORAD_CAT_ID><ELEMENT_SET_NO>999</ELEMENT_SET_NO><REV_AT_EPOCH>2904</REV_AT_EPOCH><BSTAR>.47591455E-3</BSTAR><MEAN_MOTION_DOT>.3411E-4</MEAN_MOTION_DOT><MEAN_MOTION_DDOT>0</MEAN_MOTION_DDOT></tleParameters></data></segment></body></omm>
<omm id="CCSDS_OMM_VERS" version="2.0">
<header><CREATION_DATE/><ORIGINATOR/></header><body><segment><metadata><OBJECT_NAME>KUIPER-00031</OBJECT_NAME><OBJECT_ID>2025-088W</OBJECT_ID><CENTER_NAME>EARTH</CENTER_NAME><REF_FRAME>TEME</REF_FRAME><TIME_SYSTEM>UTC</TIME_SYSTEM><MEAN_ELEMENT_THEORY>SGP4</MEAN_ELEMENT_THEORY></metadata><data><meanElements><EPOCH>2025-11-04T06:07:53.942880</EPOCH><MEAN_MOTION>14.80010667</MEAN_MOTION><ECCENTRICITY>.00051673</ECCENTRICITY><INCLINATION>51.8992</INCLINATION><RA_OF_ASC_NODE>291.2760</RA_OF_ASC_NODE><ARG_OF_PERICENTER>55.7386</ARG_OF_PERICENTER><MEAN_ANOMALY>304.4065</MEAN_ANOMALY></meanElements><tleParameters><EPHEMERIS_TYPE>0</EPHEMERIS_TYPE><CLASSIFICATION_TYPE>U</CLASSIFICATION_TYPE><NORAD_CAT_ID>63744</NORAD_CAT_ID><ELEMENT_SET_NO>999</ELEMENT_SET_NO><REV_AT_EPOCH>2896</REV_AT_EPOCH><BSTAR>.45673272E-3</BSTAR><MEAN_MOTION_DOT>.3268E-4</MEAN_MOTION_DOT><MEAN_MOTION_DDOT>0</MEAN_MOTION_DDOT></tleParameters></data></segment></body></omm>
<omm id="CCSDS_OMM_VERS" version="2.0">
<header><CREATION_DATE/><ORIGINATOR/></header><body><segment><metadata><OBJECT_NAME>KUIPER-00032</OBJECT_NAME><OBJECT_ID>2025-088X</OBJECT_ID><CENTER_NAME>EARTH</CENTER_NAME><REF_FRAME>TEME</REF_FRAME><TIME_SYSTEM>UTC</TIME_SYSTEM><MEAN_ELEMENT_THEORY>SGP4</MEAN_ELEMENT_THEORY></metadata><data><meanElements><EPOCH>2025-11-04T04:06:05.341824</EPOCH><MEAN_MOTION>15.31992876</MEAN_MOTION><ECCENTRICITY>.00059918</ECCENTRICITY><INCLINATION>51.8717</INCLINATION><RA_OF_ASC_NODE>268.5701</RA_OF_ASC_NODE><ARG_OF_PERICENTER>47.8744</ARG_OF_PERICENTER><MEAN_ANOMALY>312.2749</MEAN_ANOMALY></meanElements><tleParameters><EPHEMERIS_TYPE>0</EPHEMERIS_TYPE><CLASSIFICATION_TYPE>U</CLASSIFICATION_TYPE><NORAD_CAT_ID>63745</NORAD_CAT_ID><ELEMENT_SET_NO>999</ELEMENT_SET_NO><REV_AT_EPOCH>3027</REV_AT_EPOCH><BSTAR>.58666902E-3</BSTAR><MEAN_MOTION_DOT>.18073E-3</MEAN_MOTION_DOT><MEAN_MOTION_DDOT>0</MEAN_MOTION_DDOT></tleParameters></data></segment></body></omm>
<omm id="CCSDS_OMM_VERS" version="2.0">
<header><CREATION_DATE/><ORIGINATOR/></header><body><segment><metadata><OBJECT_NAME>KUIPER-00033</OBJECT_NAME><OBJECT_ID>2025-088Y</OBJECT_ID><CENTER_NAME>EARTH</CENTER_NAME><REF_FRAME>TEME</REF_FRAME><TIME_SYSTEM>UTC</TIME_SYSTEM><MEAN_ELEMENT_THEORY>SGP4</MEAN_ELEMENT_THEORY></metadata><data><meanElements><EPOCH>2025-11-04T05:21:39.391776</EPOCH><MEAN_MOTION>14.79946844</MEAN_MOTION><ECCENTRICITY>.0003527</ECCENTRICITY><INCLINATION>51.9013</INCLINATION><RA_OF_ASC_NODE>321.4050</RA_OF_ASC_NODE><ARG_OF_PERICENTER>121.0177</ARG_OF_PERICENTER><MEAN_ANOMALY>239.1132</MEAN_ANOMALY></meanElements><tleParameters><EPHEMERIS_TYPE>0</EPHEMERIS_TYPE><CLASSIFICATION_TYPE>U</CLASSIFICATION_TYPE><NORAD_CAT_ID>63746</NORAD_CAT_ID><ELEMENT_SET_NO>999</ELEMENT_SET_NO><REV_AT_EPOCH>2902</REV_AT_EPOCH><BSTAR>.57629814E-4</BSTAR><MEAN_MOTION_DOT>.218E-5</MEAN_MOTION_DOT><MEAN_MOTION_DDOT>0</MEAN_MOTION_DDOT></tleParameters></data></segment></body></omm>
<omm id="CCSDS_OMM_VERS" version="2.0">
<header><CREATION_DATE/><ORIGINATOR/></header><body><segment><metadata><OBJECT_NAME>KUIPER-00034</OBJECT_NAME><OBJECT_ID>2025-088Z</OBJECT_ID><CENTER_NAME>EARTH</CENTER_NAME><REF_FRAME>TEME</REF_FRAME><TIME_SYSTEM>UTC</TIME_SYSTEM><MEAN_ELEMENT_THEORY>SGP4</MEAN_ELEMENT_THEORY></metadata><data><meanElements><EPOCH>2025-11-04T05:48:56.614752</EPOCH><MEAN_MOTION>14.80017830</MEAN_MOTION><ECCENTRICITY>.00028691</ECCENTRICITY><INCLINATION>51.9012</INCLINATION><RA_OF_ASC_NODE>283.6116</RA_OF_ASC_NODE><ARG_OF_PERICENTER>51.1825</ARG_OF_PERICENTER><MEAN_ANOMALY>308.9394</MEAN_ANOMALY></meanElements><tleParameters><EPHEMERIS_TYPE>0</EPHEMERIS_TYPE><CLASSIFICATION_TYPE>U</CLASSIFICATION_TYPE><NORAD_CAT_ID>63747</NORAD_CAT_ID><ELEMENT_SET_NO>999</ELEMENT_SET_NO><REV_AT_EPOCH>2923</REV_AT_EPOCH><BSTAR>.4745174E-3</BSTAR><MEAN_MOTION_DOT>.3405E-4</MEAN_MOTION_DOT><MEAN_MOTION_DDOT>0</MEAN_MOTION_DDOT></tleParameters></data></segment></body></omm>

</ndm>
