KUIPER-00027            
1 63740U 25088S   25308.17899333  .00002754  00000+0  39317-3 0  9997
2 63740  51.9017 290.4676 0005305 100.4865 259.6695 14.79602215 29039
KUIPER-00028            
1 63741U 25088T   25308.26243555  .00002771  00000+0  39763-3 0  9991
2 63741  51.9013 288.0646 0004610 118.9971 241.1454 14.79363876 29481
KUIPER-00029            
1 63742U 25088U   25308.23545071  .00003285  00000+0  45897-3 0  9993
2 63742  51.9023 286.1009 0009498  72.5338 287.6662 14.80006096 29033
KUIPER-00030            
1 63743U 25088V   25308.17377074  .00003411  00000+0  47591-3 0  9997
2 63743  51.9015 305.5687 0014519  17.6842 342.4623 14.79926031 29049
KUIPER-00031            
1 63744U 25088W   25308.25548545  .00003268  00000+0  45673-3 0  9999
2 63744  51.8992 291.2760 0005167  55.7386 304.4065 14.80010667 28960
KUIPER-00032            
1 63745U 25088X   25308.17089516  .00018073  00000+0  58667-3 0  9996
2 63745  51.8717 268.5701 0005991  47.8744 312.2749 15.31992876 30274
KUIPER-00033            
1 63746U 25088Y   25308.22337259  .00000218  00000+0  57630-4 0  9995
2 63746  51.9013 321.4050 0003527 121.0177 239.1132 14.79946844 29028
KUIPER-00034            
1 63747U 25088Z   25308.24232193  .00003405  00000+0  47452-3 0  9990
2 63747  51.9012 283.6116 0002869  51.1825 308.9394 14.80017830 29235
